TIANTONG-1 1            
1 41725U 16048A   24021.48380560 -.00000316  00000+0  00000+0 0  9990
2 41725   2.4698  24.4447 0008120 307.5145  63.9585  1.00271847 27466
JCSAT-16                
1 41729U 16050A   24021.29288191 -.00000248  00000+0  00000+0 0  9997
2 41729   0.0239  58.1359 0000998   0.4847 310.9134  1.00270636 27262
USA 270                 
1 41744U 16052A   24016.21021604 -.00000286  00000+0  00000+0 0  9998
2 41744   1.9215  88.5099 0000692  15.1741 181.1743  1.00427115 19270
USA 271                 
1 41745U 16052B   24016.23787913  .00000076  00000+0  00000+0 0  9999
2 41745   1.8949  88.4861 0003489 206.3907 278.4568  1.00200570 19072
INTELSAT 36 (IS-36)     
1 41747U 16053A   24021.19071289 -.00000021  00000+0  00000+0 0  9996
2 41747   0.0091  28.6053 0001426 340.1859 248.3903  1.00273690 27143
INTELSAT 33E (IS-33E)   
1 41748U 16053B   24021.18888541  .00000053  00000+0  00000+0 0  9997
2 41748   0.0145  75.6533 0002158 222.8276 309.5464  1.00269979 27441
INSAT-3DR               
1 41752U 16054A   24021.12022444 -.00000073  00000+0  00000+0 0  9992
2 41752   0.1020  94.2726 0014280 180.1955 322.7707  1.00271578 27017
GSAT-18                 
1 41793U 16060A   24021.12022444 -.00000073  00000+0  00000+0 0  9994
2 41793   0.0770  94.5761 0002779 166.6360 336.0228  1.00271444 26730
SKY MUSTER 2 (NBN1B)    
1 41794U 16060B   24021.27087826 -.00000241  00000+0  00000+0 0  9993
2 41794   0.0135 358.3686 0001761 293.3973  70.6627  1.00270421 26717
HIMAWARI-9              
1 41836U 16064A   24021.53970501 -.00000271  00000+0  00000+0 0  9997
2 41836   0.0184 298.5328 0000934 345.6231 171.2681  1.00273243 26505
SHIJIAN-17 (SJ-17)      
1 41838U 16065A   24021.29339605 -.00000047  00000+0  00000+0 0  9998
2 41838   3.5085  83.1522 0003932 274.7848  35.0443  1.00272776 26408
GOES 16                 
1 41866U 16071A   24021.18035559 -.00000244  00000+0  00000+0 0  9994
2 41866   0.0739 250.8416 0001274  74.4428 144.4535  1.00270785 26302
TIANLIAN 1-04           
1 41869U 16072A   24021.26210352  .00000034  00000+0  00000+0 0  9999
2 41869   0.0725  93.2233 0024106  60.0774 238.0276  1.00268445 26504
WGS F8 (USA 272)        
1 41879U 16075A   24021.50506001 -.00000199  00000+0  00000+0 0  9992
2 41879   0.0098  65.7682 0000460 252.2670 133.9394  1.00270723 26121
FENGYUN 4A              
1 41882U 16077A   24021.51438347 -.00000326  00000+0  00000+0 0  9998
2 41882   0.0874  64.2569 0005093 339.7162   6.1364  1.00272213 26189
ECHOSTAR 19             
1 41893U 16079A   24021.22943802 -.00000134  00000+0  00000+0 0  9994
2 41893   0.0140  81.0553 0001707 220.7356 163.7725  1.00270540 25911
JCSAT-110A (JCSAT-15)   
1 41903U 16082A   24020.98419519 -.00000347  00000+0  00000+0 0  9991
2 41903   0.0280  61.3341 0001651 228.4691 294.4250  1.00268743 25950
STAR ONE D1             
1 41904U 16082B   24021.44682093 -.00000207  00000+0  00000+0 0  9998
2 41904   0.0495 273.1374 0002036  35.3423 248.6780  1.00269178 25989
TJS-2                   
1 41911U 17001A   24021.19027778 -.00000002  00000+0  00000+0 0  9996
2 41911   0.1954  77.7522 0003533 225.4977 311.7337  1.00270576 25928
SBIRS GEO-4 (USA 273)   
1 41937U 17004A   24021.22943802 -.00000138  00000+0  00000+0 0  9996
2 41937   1.4822 346.3967 0002684 308.2699 171.1965  1.00271383 25808
HISPASAT 36W-1          
1 41942U 17006A   24021.16991443 -.00000241  00000+0  00000+0 0  9996
2 41942   0.0135 308.7609 0001048 347.9209 208.5049  1.00271916 25429
TELKOM 3S               
1 41944U 17007A   24020.98576160 -.00000359  00000+0  00000+0 0  9993
2 41944   0.0070   0.1783 0002611 293.9343 298.5898  1.00272316 25337
INTELSAT 32E (IS-32E)   
1 41945U 17007B   24021.16924397 -.00000265  00000+0  00000+0 0  9990
2 41945   0.0167  69.0076 0000377 133.0608 295.6926  1.00271844 25424
ECHOSTAR 23             
1 42070U 17014A   24021.59258841 -.00000053  00000+0  00000+0 0  9994
2 42070   0.0159  66.4180 0002095 228.9775 288.4434  1.00269378 25142
WGS F9 (USA 275)        
1 42075U 17016A   24021.24632044 -.00000093  00000+0  00000+0 0  9998
2 42075   0.0107  70.4540 0000616 243.0867 243.2117  1.00270603 25096
SES-10                  
1 42432U 17017A   24021.52183456 -.00000269  00000+0  00000+0 0  9990
2 42432   0.0123  45.4043 0002929 254.1201 301.7988  1.00271821 24925
CHINASAT 16 (SJ-13)     
1 42662U 17018A   24020.98428220 -.00000349  00000+0  00000+0 0  9995
2 42662   0.0546  89.5227 0005996 197.5645 297.6118  1.00272594 24927
KOREASAT 7              
1 42691U 17023A   24020.98532649 -.00000358  00000+0  00000+0 0  9994
2 42691   0.0242  15.3482 0000676 242.8233 332.2822  1.00272575 24577
SGDC                    
1 42692U 17023B   24020.87524088 -.00000245  00000+0  00000+0 0  9996
2 42692   0.0141  12.5861 0002702 294.7170  52.6476  1.00272361 24609
GSAT-9                  
1 42695U 17024A   24020.98158451 -.00000282  00000+0  00000+0 0  9990
2 42695   0.1018 269.0271 0002129  24.6592 276.8123  1.00269343 24505
INMARSAT 5-F4           
1 42698U 17025A   24021.18836328  .00000078  00000+0  00000+0 0  9995
2 42698   0.0175  60.4449 0000488 258.1902 285.7136  1.00272551 24470
SES-15                  
1 42709U 17026A   24021.23320205  .00000064  00000+0  00000+0 0  9992
2 42709   0.0193  34.7558 0000587 303.3873  96.7357  1.00267592 25338
QZS-2 (MICHIBIKI-2)     
1 42738U 17028A   24020.53521556 -.00000119  00000+0  00000+0 0  9992
2 42738  40.8131 255.8861 0753027 269.8375 288.1430  1.00275677 24313
VIASAT-2                
1 42740U 17029A   24021.18035559 -.00000261  00000+0  00000+0 0  9999
2 42740   0.0186 298.6672 0001722  57.6063 118.7604  1.00270226 24398
EUTELSAT 172B           
1 42741U 17029B   24021.52342312 -.00000003  00000+0  00000+0 0  9990
2 42741   0.0697 157.4433 0000163 126.9455 196.3905  1.00271832 24914
GSAT-19                 
1 42747U 17031A   24021.25824257  .00000129  00000+0  00000+0 0  9990
2 42747   0.0751  98.4393 0001624 239.1348 283.3452  1.00272915 24323
ECHOSTAR 21             
1 42749U 17032A   24021.39373704  .00000073  00000+0  00000+0 0  9992
2 42749   2.8009 316.7797 0002639 340.3615 335.0940  1.00272042 24322
BULGARIASAT-1           
1 42801U 17038A   24021.22966000  .00000015  00000+0  00000+0 0  9992
2 42801   0.0322  80.0403 0002581 221.7739 262.8338  1.00271929 24038
HELLAS-SAT 3            
1 42814U 17040A   24021.52063142  .00000156  00000+0  00000+0 0  9993
2 42814   0.0559  15.7877 0003850 318.6695  12.3102  1.00273621 24051
GSAT-17                 
1 42815U 17040B   24021.48215218 -.00000254  00000+0  00000+0 0  9992
2 42815   0.0390 257.8914 0006077  11.4865 118.0276  1.00271013 24078
INTELSAT 35E (IS-35E)   
1 42818U 17041A   24021.46368782 -.00000235  00000+0  00000+0 0  9998
2 42818   0.0199  58.5789 0002275 249.7613 304.4124  1.00270379 24007
COSMOS 2520             
1 42907U 17046A   24021.47249265  .00000141  00000+0  00000+0 0  9992
2 42907   0.0299 108.9220 0000472 212.5540  13.9376  1.00268563 23586
TDRS 13                 
1 42915U 17047A   24021.15465991 -.00000092  00000+0  00000+0 0  9999
2 42915   3.7673 341.6594 0011856 113.0796  69.3987  1.00272023 23542
QZS-3 (MICHIBIKI-3)     
1 42917U 17048A   24021.50327213 -.00000345  00000+0  00000+0 0  9996
2 42917   0.0634 214.1280 0002832  88.3238 126.0987  1.00269551 23561
AMAZONAS 5              
1 42934U 17053A   24020.16170251 -.00000278  00000+0  00000+0 0  9995
2 42934   0.0354 329.7838 0005649 334.9426 171.4951  1.00271977 23312
ASIASAT 9               
1 42942U 17057A   24021.12202390 -.00000356  00000+0  00000+0 0  9992
2 42942   0.0130  49.3599 0002334 251.3836 345.2701  1.00269353 23057
INTELSAT 37E (IS-37E)   
1 42950U 17059A   24021.45813329 -.00000137  00000+0  00000+0 0  9996
2 42950   0.0141  86.9779 0002911 209.1551 331.0906  1.00272802 23245
BSAT-4A                 
1 42951U 17059B   24021.50882653 -.00000347  00000+0  00000+0 0  9992
2 42951   0.0348  44.8276 0003471 308.9699  59.5582  1.00270175 23156
QZS-4 (MICHIBIKI-4)     
1 42965U 17062A   24020.67748727 -.00000355  00000+0  00000+0 0  9990
2 42965  40.5792 354.6748 0751756 268.7464 236.9622  1.00295924 23007
SES-11 (ECHOSTAR 105)   
1 42967U 17063A   24021.15625185 -.00000085  00000+0  00000+0 0  9999
2 42967   0.0110  28.0540 0003065 261.2290 142.0158  1.00272136 22914
KOREASAT 5A             
1 42984U 17067A   24021.50882653 -.00000355  00000+0  00000+0 0  9996
2 42984   0.0129  46.1675 0001541 237.6108 132.8984  1.00271990 22837
ALCOMSAT 1              
1 43039U 17078A   24021.17217703 -.00000182  00000+0  00000+0 0  9999
2 43039   0.0652 243.1613 0002919  38.7823 235.2767  1.00271099 22494
SBIRS GEO-3 (USA 282)   
1 43162U 18009A   24021.21699376  .00000136  00000+0  00000+0 0  9994
2 43162   2.5469 330.4640 0002008 326.1139 102.1947  1.00272043 22040
AL YAH 3                
1 43174U 18012A   24021.45952626 -.00000153  00000+0  00000+0 0  9997
2 43174   0.0200 299.6339 0002364   7.0719 318.8982  1.00269357 22032
SES-14                  
1 43175U 18012B   24021.36021691 -.00000275  00000+0  00000+0 0  9992
2 43175   0.0113   0.0689 0001247 282.8286 279.4826  1.00273216 22240
GOES 17                 
1 43226U 18022A   24021.15625185 -.00000087  00000+0  00000+0 0  9996
2 43226   0.0270 166.0874 0001935 111.4055 154.0822  1.00271620 21616
HISPASAT 30W-6          
1 43228U 18023A   24021.45761177 -.00000213  00000+0  00000+0 0  9995
2 43228   0.0397  42.3507 0004330 278.8359 293.8543  1.00270969 21699
SUPERBIRD-B3            
1 43271U 18033A   24021.24077090 -.00000089  00000+0  00000+0 0  9996
2 43271   0.0159  57.1473 0001396 242.8516  68.7728  1.00270887 21259
HYLAS 4                 
1 43272U 18033B   24021.24205632 -.00000229  00000+0  00000+0 0  9998
2 43272   0.0734 262.6061 0001809  42.8094 228.3043  1.00273558 21277
